{
  "type": "FeatureCollection",
  "features": [
    {
      "type": "Feature",
      "properties": {
        "norad_id": 37836,
        "name": "EUTELSAT 16A",
        "group": "eutelsat",
        "lat": -0.007234781551032124,
        "lon": -177.97318531093902,
        "alt_km": 35788.4217650836,
        "timestamp": "2025-12-27T04:40:45.171315+00:00",
        "meta_object_name": "EUTELSAT 16A",
        "meta_object_id": "2011-057A",
        "meta_epoch": "2025-12-26T18:14:45.695904",
        "meta_mean_motion": 1.00271816,
        "meta_eccentricity": 0.0005829,
        "meta_inclination": 0.0554,
        "meta_ra_of_asc_node": 353.4797,
        "meta_arg_of_pericenter": 284.1562,
        "meta_mean_anomaly": 107.5386,
        "meta_ephemeris_type": 0,
        "meta_classification_type": "U",
        "meta_norad_cat_id": 37836,
        "meta_element_set_no": 999,
        "meta_rev_at_epoch": 559,
        "meta_bstar": 0,
        "meta_mean_motion_dot": 1.26e-06,
        "meta_mean_motion_ddot": 0,
        "tle_line1": "1 37836U 11057A   25360.76025111  .00000126  00000+0  00000+0 0  9997",
        "tle_line2": "2 37836   0.0554 353.4797 0005829 284.1562 107.5386  1.00271816  5598"
      },
      "geometry": {
        "type": "Point",
        "coordinates": [
          -177.97318531093902,
          -0.007234781551032124
        ]
      }
    },
    {
      "type": "Feature",
      "properties": {
        "norad_id": 38992,
        "name": "EUTELSAT 21B",
        "group": "eutelsat",
        "lat": -0.016448931835598958,
        "lon": -172.34992009552585,
        "alt_km": 35786.96425098466,
        "timestamp": "2025-12-27T04:40:45.171327+00:00",
        "meta_object_name": "EUTELSAT 21B",
        "meta_object_id": "2012-062B",
        "meta_epoch": "2025-12-26T18:16:23.040192",
        "meta_mean_motion": 1.00271866,
        "meta_eccentricity": 0.00032365,
        "meta_inclination": 0.065,
        "meta_ra_of_asc_node": 353.6464,
        "meta_arg_of_pericenter": 288.0574,
        "meta_mean_anomaly": 109.471,
        "meta_ephemeris_type": 0,
        "meta_classification_type": "U",
        "meta_norad_cat_id": 38992,
        "meta_element_set_no": 999,
        "meta_rev_at_epoch": 4809,
        "meta_bstar": 0,
        "meta_mean_motion_dot": 1.52e-06,
        "meta_mean_motion_ddot": 0,
        "tle_line1": "1 38992U 12062B   25360.76137778  .00000152  00000+0  00000+0 0  9990",
        "tle_line2": "2 38992   0.0650 353.6464 0003236 288.0574 109.4710  1.00271866 48097"
      },
      "geometry": {
        "type": "Point",
        "coordinates": [
          -172.34992009552585,
          -0.016448931835598958
        ]
      }
    },
    {
      "type": "Feature",
      "properties": {
        "norad_id": 39020,
        "name": "EUTELSAT 70B",
        "group": "eutelsat",
        "lat": -0.06977959082016623,
        "lon": -123.41553687612225,
        "alt_km": 35769.78942089501,
        "timestamp": "2025-12-27T04:40:45.171339+00:00",
        "meta_object_name": "EUTELSAT 70B",
        "meta_object_id": "2012-069A",
        "meta_epoch": "2025-12-26T22:28:38.906688",
        "meta_mean_motion": 1.00271061,
        "meta_eccentricity": 0.00041648,
        "meta_inclination": 0.0612,
        "meta_ra_of_asc_node": 351.7823,
        "meta_arg_of_pericenter": 265.1525,
        "meta_mean_anomaly": 246.3938,
        "meta_ephemeris_type": 0,
        "meta_classification_type": "U",
        "meta_norad_cat_id": 39020,
        "meta_element_set_no": 999,
        "meta_rev_at_epoch": 4778,
        "meta_bstar": 0,
        "meta_mean_motion_dot": -2.1e-07,
        "meta_mean_motion_ddot": 0,
        "tle_line1": "1 39020U 12069A   25360.93656142 -.00000021  00000+0  00000+0 0  9996",
        "tle_line2": "2 39020   0.0612 351.7823 0004164 265.1525 246.3938  1.00271061 47784"
      },
      "geometry": {
        "type": "Point",
        "coordinates": [
          -123.41553687612225,
          -0.06977959082016623
        ]
      }
    },
    {
      "type": "Feature",
      "properties": {
        "norad_id": 39122,
        "name": "EUTELSAT 117 WEST A",
        "group": "eutelsat",
        "lat": 0.027116002564758573,
        "lon": 49.33408570628016,
        "alt_km": 35794.12699940558,
        "timestamp": "2025-12-27T04:40:45.171351+00:00",
        "meta_object_name": "EUTELSAT 117 WEST A",
        "meta_object_id": "2013-012A",
        "meta_epoch": "2025-12-26T22:45:04.214016",
        "meta_mean_motion": 1.00270805,
        "meta_eccentricity": 0.00028627,
        "meta_inclination": 0.0152,
        "meta_ra_of_asc_node": 332.5334,
        "meta_arg_of_pericenter": 306.8566,
        "meta_mean_anomaly": 40.763,
        "meta_ephemeris_type": 0,
        "meta_classification_type": "U",
        "meta_norad_cat_id": 39122,
        "meta_element_set_no": 999,
        "meta_rev_at_epoch": 4670,
        "meta_bstar": 0,
        "meta_mean_motion_dot": 9e-08,
        "meta_mean_motion_ddot": 0,
        "tle_line1": "1 39122U 13012A   25360.94796544  .00000009  00000+0  00000+0 0  9995",
        "tle_line2": "2 39122   0.0152 332.5334 0002862 306.8566  40.7630  1.00270805 46702"
      },
      "geometry": {
        "type": "Point",
        "coordinates": [
          49.33408570628016,
          0.027116002564758573
        ]
      }
    },
    {
      "type": "Feature",
      "properties": {
        "norad_id": 39163,
        "name": "EUTELSAT 7B",
        "group": "eutelsat",
        "lat": 0.026861376152386304,
        "lon": 173.0762764594363,
        "alt_km": 35803.0423599876,
        "timestamp": "2025-12-27T04:40:45.171363+00:00",
        "meta_object_name": "EUTELSAT 7B",
        "meta_object_id": "2013-022A",
        "meta_epoch": "2025-12-26T08:51:38.739168",
        "meta_mean_motion": 1.00271815,
        "meta_eccentricity": 0.0004718,
        "meta_inclination": 0.0666,
        "meta_ra_of_asc_node": 12.0633,
        "meta_arg_of_pericenter": 310.169,
        "meta_mean_anomaly": 272.7878,
        "meta_ephemeris_type": 0,
        "meta_classification_type": "U",
        "meta_norad_cat_id": 39163,
        "meta_element_set_no": 999,
        "meta_rev_at_epoch": 4621,
        "meta_bstar": 0,
        "meta_mean_motion_dot": 7e-07,
        "meta_mean_motion_ddot": 0,
        "tle_line1": "1 39163U 13022A   25360.36919837  .00000070  00000+0  00000+0 0  9997",
        "tle_line2": "2 39163   0.0666  12.0633 0004718 310.1690 272.7878  1.00271815 46216"
      },
      "geometry": {
        "type": "Point",
        "coordinates": [
          173.0762764594363,
          0.026861376152386304
        ]
      }
    },
    {
      "type": "Feature",
      "properties": {
        "norad_id": 39612,
        "name": "EXPRESS-AT1",
        "group": "eutelsat",
        "lat": -0.014855057104218986,
        "lon": -137.8517697567796,
        "alt_km": 35783.78835734339,
        "timestamp": "2025-12-27T04:40:45.171375+00:00",
        "meta_object_name": "EXPRESS-AT1",
        "meta_object_id": "2014-010A",
        "meta_epoch": "2025-12-26T04:01:38.790048",
        "meta_mean_motion": 1.00275867,
        "meta_eccentricity": 0.0001356,
        "meta_inclination": 0.0174,
        "meta_ra_of_asc_node": 279.8877,
        "meta_arg_of_pericenter": 223.1198,
        "meta_mean_anomaly": 68.3278,
        "meta_ephemeris_type": 0,
        "meta_classification_type": "U",
        "meta_norad_cat_id": 39612,
        "meta_element_set_no": 999,
        "meta_rev_at_epoch": 4308,
        "meta_bstar": 0,
        "meta_mean_motion_dot": 1e-06,
        "meta_mean_motion_ddot": 0,
        "tle_line1": "1 39612U 14010A   25360.16781007  .00000100  00000+0  00000+0 0  9992",
        "tle_line2": "2 39612   0.0174 279.8877 0001356 223.1198  68.3278  1.00275867 43089"
      },
      "geometry": {
        "type": "Point",
        "coordinates": [
          -137.8517697567796,
          -0.014855057104218986
        ]
      }
    },
    {
      "type": "Feature",
      "properties": {
        "norad_id": 39613,
        "name": "EXPRESS-AT2",
        "group": "eutelsat",
        "lat": -0.0168767210806461,
        "lon": -54.020631476607036,
        "alt_km": 35780.11611398488,
        "timestamp": "2025-12-27T04:40:45.171405+00:00",
        "meta_object_name": "EXPRESS-AT2",
        "meta_object_id": "2014-010B",
        "meta_epoch": "2025-12-26T22:15:35.536032",
        "meta_mean_motion": 1.00270958,
        "meta_eccentricity": 0.00016898,
        "meta_inclination": 0.017,
        "meta_ra_of_asc_node": 323.2295,
        "meta_arg_of_pericenter": 313.4014,
        "meta_mean_anomaly": 292.7934,
        "meta_ephemeris_type": 0,
        "meta_classification_type": "U",
        "meta_norad_cat_id": 39613,
        "meta_element_set_no": 999,
        "meta_rev_at_epoch": 4277,
        "meta_bstar": 0,
        "meta_mean_motion_dot": -2.59e-06,
        "meta_mean_motion_ddot": 0,
        "tle_line1": "1 39613U 14010B   25360.92749463 -.00000259  00000+0  00000+0 0  9993",
        "tle_line2": "2 39613   0.0170 323.2295 0001689 313.4014 292.7934  1.00270958 42776"
      },
      "geometry": {
        "type": "Point",
        "coordinates": [
          -54.020631476607036,
          -0.0168767210806461
        ]
      }
    }
  ]
}